{
    "links": {
        "self": "http://www.neowsapp.com/rest/v1/neo/3765025?api_key=iIulBulltgU6a56xZRHN4H3l9WmuAYTsLGpBGhQ2"
    },
    "id": "3765025",
    "neo_reference_id": "3765025",
    "name": "(2016 VB18)",
    "designation": "2016 VB18",
    "nasa_jpl_url": "http://ssd.jpl.nasa.gov/sbdb.cgi?sstr=3765025",
    "absolute_magnitude_h": 26.564,
    "estimated_diameter": {
        "kilometers": {
            "estimated_diameter_min": 0.0129346588,
            "estimated_diameter_max": 0.0289227763
        },
        "meters": {
            "estimated_diameter_min": 12.9346587864,
            "estimated_diameter_max": 28.9227763122
        },
        "miles": {
            "estimated_diameter_min": 0.0080372219,
            "estimated_diameter_max": 0.0179717744
        },
        "feet": {
            "estimated_diameter_min": 42.4365459329,
            "estimated_diameter_max": 94.8910014362
        }
    },
    "is_potentially_hazardous_asteroid": false,
    "close_approach_data": [
        {
            "close_approach_date": "2016-11-07",
            "close_approach_date_full": "2016-Nov-07 06:54",
            "epoch_date_close_approach": 1478501640000,
            "relative_velocity": {
                "kilometers_per_second": "11.5379539537",
                "kilometers_per_hour": "41536.6342334327",
                "miles_per_hour": "25809.2491991015"
            },
            "miss_distance": {
                "astronomical": "0.0050935723",
                "lunar": "1.9813996247",
                "kilometers": "761987.566771001",
                "miles": "473477.1185657738"
            },
            "orbiting_body": "Earth"
        },
        {
            "close_approach_date": "2016-11-07",
            "close_approach_date_full": "2016-Nov-07 07:35",
            "epoch_date_close_approach": 1478504100000,
            "relative_velocity": {
                "kilometers_per_second": "12.2987670751",
                "kilometers_per_hour": "44275.56147031",
                "miles_per_hour": "27511.1120702601"
            },
            "miss_distance": {
                "astronomical": "0.0072371952",
                "lunar": "2.8152689328",
                "kilometers": "1082668.986694224",
                "miles": "672739.3129953312"
            },
            "orbiting_body": "Moon"
        },
        {
            "close_approach_date": "2072-10-16",
            "close_approach_date_full": "2072-Oct-16 14:16",
            "epoch_date_close_approach": 3243852960000,
            "relative_velocity": {
                "kilometers_per_second": "22.4235257905",
                "kilometers_per_hour": "80724.692845723",
                "miles_per_hour": "50159.1848407216"
            },
            "miss_distance": {
                "astronomical": "0.4103544898",
                "lunar": "159.6278965322",
                "kilometers": "61388157.619016726",
                "miles": "38144832.3450777788"
            },
            "orbiting_body": "Earth"
        }
    ],
    "orbital_data": {
        "orbit_id": "4",
        "orbit_determination_date": "2017-04-06 08:22:11",
        "first_observation_date": "2016-11-06",
        "last_observation_date": "2016-11-06",
        "data_arc_in_days": null,
        "observations_used": 13,
        "orbit_uncertainty": "9",
        "minimum_orbit_intersection": ".00383217",
        "jupiter_tisserand_invariant": "4.971",
        "epoch_osculation": "2457698.5",
        "eccentricity": ".3547686299144031",
        "semi_major_axis": "1.279209872927862",
        "inclination": "12.97019929952846",
        "ascending_node_longitude": "224.5443237244853",
        "orbital_period": "528.4587958169575",
        "perihelion_distance": ".825386338936267",
        "perihelion_argument": "250.0069502144038",
        "aphelion_distance": "1.733033406919458",
        "perihelion_time": "2457751.432404906435",
        "mean_anomaly": "323.9410566781125",
        "mean_motion": ".6812262428965103",
        "equinox": "J2000",
        "orbit_class": {
            "orbit_class_type": "APO",
            "orbit_class_description": "Near-Earth asteroid orbits which cross the Earth’s orbit similar to that of 1862 Apollo",
            "orbit_class_range": "a (semi-major axis) > 1.0 AU; q (perihelion) < 1.017 AU"
        }
    },
    "is_sentry_object": false
}